#aV2015  5  4  0  0  0.00000000     288 DD+AD WGS84 FIT  NGA
## 1843  86400.00000000   300.00000000 57146 0.0000000000000
+   31     1  2  3  4  5  6  7  9 10 11 12 13 14 15 16 17 18
+         19 20 21 22 23 24 25 26 27 28 29 30 31 32  0  0  0
+          0  0  0  0  0  0  0  0  0  0  0  0  0  0  0  0  0
+          0  0  0  0  0  0  0  0  0  0  0  0  0  0  0  0  0
+          0  0  0  0  0  0  0  0  0  0  0  0  0  0  0  0  0
++         2  2  2  2  2  2  2  2  2  2  2  2  2  2  2  2  2
++         2  2  2  2  2  2  2  2  2  2  2  2  2  2  0  0  0
++         0  0  0  0  0  0  0  0  0  0  0  0  0  0  0  0  0
++         0  0  0  0  0  0  0  0  0  0  0  0  0  0  0  0  0
++         0  0  0  0  0  0  0  0  0  0  0  0  0  0  0  0  0
%c cc cc ccc ccc cccc cccc cccc cccc ccccc ccccc ccccc ccccc
%c cc cc ccc ccc cccc cccc cccc cccc ccccc ccccc ccccc ccccc
%f  0.0000000  0.000000000  0.00000000000  0.000000000000000
%f  0.0000000  0.000000000  0.00000000000  0.000000000000000
%i    0    0    0    0      0      0      0      0         0
%i    0    0    0    0      0      0      0      0         0
/*      NGA, ST. LOUIS,MO.                                  
/*   EPHEMERIS COMPUTED FROM  1 DAYS OF DATA                
/*   EPOCHA SMOOTHER                                       
/* CCCCCCCCCCCCCCCCCCCCCCCCCCCCCCCCCCCCCCCCCCCCCCCCCCCCCCCCC
*  2015  5  4  3  0  0.00000000
P  1  21674.119853  11468.830608  10388.515111     -6.018329                    
V  1   7673.547989  10991.231615 -27825.873083      0.004639                    
P  2 -13072.161296 -21561.523362   9417.542320    563.669138                    
V  2  10124.068797   5764.729265  27909.727363      0.023456                    
P  3  14896.034953   3299.498743  21754.930606    316.943457                    
V  3  -6963.730701  26702.353359    680.130037      0.113967                    
P  4  19812.279714  17847.233344   1155.780812    -13.419076                    
V  4   -940.297403   3637.212463 -31055.036575     -0.013292                    
P  5  -5417.941788 -21420.019275 -14652.456852   -245.940720                    
V  5   7037.435447 -17432.791245  23142.594499      0.046812                    
P  6   1011.152553 -18062.823689  19451.368117    151.859696                    
V  6  18464.500199  16439.285069  14297.993210      0.094610                    
P  7  17865.796392   -841.794037 -19655.398734    459.744507                    
V  7  16663.736509  18704.911187  13912.649325      0.026006                    
P  9  25632.368985  -6991.829537    186.874379   -149.656391                    
V  9    538.983670   2857.962978  31679.687949     -0.070083                    
P 10   8947.216663 -24526.235782   3027.961432   -173.469820                    
V 10   2520.150223   5211.780691  31280.989626     -0.015455                    
P 11  24254.874010  10953.053278    441.418526   -575.803779                    
V 11   -991.074658   4870.402778 -30083.943078     -0.026462                    
P 12 -12865.881734  -7244.935246  21997.769929    290.014865                    
V 12   8497.109964 -26746.608152  -3606.321504      0.031454                    
P 13  -8582.478720 -13357.978601 -21418.001274   -111.322898                    
V 13  26411.322690  -4783.262916  -7770.476835     -0.033602                    
P 14 -14867.605986  14564.857142  16647.830439     66.142781                    
V 14 -20689.940466   2233.615187 -20877.871815     -0.028320                    
P 15 -20145.520073  -6227.352410 -16424.383418   -247.202475                    
V 15  18975.615310  -8412.645481 -19876.788925     -0.021757                    
P 16   3106.492136  21613.616013 -14919.257000   -132.609620                    
V 16  -7509.870222  17431.001136  24169.726638      0.036889                    
P 17  15446.575770 -14689.610443  16006.614601   -169.411778                    
V 17  19735.505092  -2693.006441 -22122.460069     -0.017985                    
P 18 -14708.392400  16711.122477 -13764.133499    398.755465                    
V 18   1128.256759 -18787.031497 -23490.846872      0.028958                    
P 19  17289.602730   9609.988838 -18132.142402   -509.351722                    
V 19 -21921.254887   4983.431880 -17994.326915     -0.011723                    
P 20  -4802.921667 -23278.085054 -11982.103870    316.491485                    
V 20   5936.097736 -14184.006078  25648.044391      0.036978                    
P 21 -16505.539974   4407.696388 -19720.928864   -442.702827                    
V 21 -18384.854677 -19286.175128  10340.691257     -0.036075                    
P 22  -9253.824147  24383.797444  -4266.805731    346.578926                    
V 22  -2623.335682  -6565.893739 -30370.166227      0.040196                    
P 23  24877.866203    747.052640  10012.802072   -106.052503                    
V 23 -11323.882832   5591.064333  27690.482809     -0.024730                    
P 24 -21740.185820 -13327.888383   7656.574003    -47.688755                    
V 24  -5126.749412  -8730.078974 -29463.270709     -0.005780                    
P 25 -15785.724895   7397.842138  19891.134031    -25.724423                    
V 25   5439.747317 -24905.909424  13676.943847     -0.036856                    
P 26  -3087.006398  25889.969126  -5052.202076     26.590832                    
V 26  -4285.771602   5504.919534  30883.251836      0.039343                    
P 27   6203.595683  13876.459900 -21801.185514     69.448437                    
V 27 -26571.516855   7540.625117  -2652.676073      0.026771                    
P 28  12641.102807 -21834.350524  -7532.004317    437.391959                    
V 28  -1447.937763  10499.492290 -30476.494395      0.026941                    
P 29 -26126.045297   3904.466587   2521.645061    608.273632                    
V 29   2578.820098  -3069.147106  31846.882954      0.023361                    
P 30  10418.637577 -11327.351232 -21657.168567    -64.148896                    
V 30  18205.314777  20598.936486  -2076.466498      0.047361                    
P 31   1526.480295  19405.535213  18040.702006    316.880311                    
V 31 -16729.918662 -15477.311386  18523.278479     -0.010514                    
P 32   7168.790538  18460.355261  17933.752529   -160.153470                    
V 32  -8951.072586  20854.918844 -17336.265754      0.095831                    
EOF
